[{"OBJECT_NAME":"STARLINK-5145","OBJECT_ID":"2022-125AW","EPOCH":"2026-03-09T15:51:34.922304","MEAN_MOTION":15.08838832,"ECCENTRICITY":0.00013017,"INCLINATION":53.2175,"RA_OF_ASC_NODE":203.894,"ARG_OF_PERICENTER":98.0229,"MEAN_ANOMALY":262.0911,"EPHEMERIS_TYPE":0,"CLASSIFICATION_TYPE":"U","NORAD_CAT_ID":54008,"ELEMENT_SET_NO":999,"REV_AT_EPOCH":18960,"BSTAR":4.3918552e-5,"MEAN_MOTION_DOT":4.11e-6,"MEAN_MOTION_DDOT":0},{"OBJECT_NAME":"H-2A R\/B","OBJECT_ID":"2025-141B","EPOCH":"2026-03-09T20:50:08.593728","MEAN_MOTION":14.90469893,"ECCENTRICITY":0.00923902,"INCLINATION":98.076,"RA_OF_ASC_NODE":17.3096,"ARG_OF_PERICENTER":151.0716,"MEAN_ANOMALY":209.5668,"EPHEMERIS_TYPE":0,"CLASSIFICATION_TYPE":"U","NORAD_CAT_ID":64695,"ELEMENT_SET_NO":999,"REV_AT_EPOCH":3783,"BSTAR":0.00033350933,"MEAN_MOTION_DOT":3.464e-5,"MEAN_MOTION_DDOT":0}]
